{
  "norad_id": 53160,
  "name": "STARLINK-4096",
  "history": [
    {
      "epoch": "2026-03-28T15:56:42.502848Z",
      "apogee_km": 540.6029805522303,
      "perigee_km": 538.7813777727724,
      "latitude_deg": -3.3472696596913115e-05,
      "longitude_deg": 13.678900459705302,
      "height_km": 540.5089693462021,
      "semi_major_axis_km": 6917.829179162501,
      "eccentricity": 0.00013166,
      "inclination_deg": 53.2169,
      "raan_deg": 78.9376,
      "arg_perigee_deg": 85.0277,
      "mean_anomaly_deg": 275.0865,
      "mean_motion_rev_day": 15.08856754
    },
    {
      "epoch": "2026-03-29T04:39:47.985696Z",
      "apogee_km": 540.7029191912561,
      "perigee_km": 538.7340975135785,
      "latitude_deg": -3.5597001415866156e-06,
      "longitude_deg": -179.99244002135953,
      "height_km": 540.5722850932144,
      "semi_major_axis_km": 6917.855508352417,
      "eccentricity": 0.0001423,
      "inclination_deg": 53.2177,
      "raan_deg": 76.5614,
      "arg_perigee_deg": 87.5617,
      "mean_anomaly_deg": 272.5538,
      "mean_motion_rev_day": 15.0884814
    },
    {
      "epoch": "2026-03-30T04:30:36.113472Z",
      "apogee_km": 540.5612354247651,
      "perigee_km": 538.9561452666912,
      "latitude_deg": 5.216721205935414e-05,
      "longitude_deg": 176.86512038268413,
      "height_km": 540.5734622627095,
      "semi_major_axis_km": 6917.895690345728,
      "eccentricity": 0.00011601,
      "inclination_deg": 53.2164,
      "raan_deg": 72.0988,
      "arg_perigee_deg": 84.2,
      "mean_anomaly_deg": 275.9125,
      "mean_motion_rev_day": 15.08834994
    },
    {
      "epoch": "2026-03-30T15:38:18.589920Z",
      "apogee_km": 540.530586404835,
      "perigee_km": 539.0186076461887,
      "latitude_deg": -2.7043687114926814e-05,
      "longitude_deg": 7.399846975592834,
      "height_km": 540.6700369204518,
      "semi_major_axis_km": 6917.911597025512,
      "eccentricity": 0.00010928,
      "inclination_deg": 53.2161,
      "raan_deg": 70.0176,
      "arg_perigee_deg": 89.9626,
      "mean_anomaly_deg": 270.1491,
      "mean_motion_rev_day": 15.0882979
    },
    {
      "epoch": "2026-03-31T15:29:06.188064Z",
      "apogee_km": 540.6350665779937,
      "perigee_km": 538.9457087099308,
      "latitude_deg": -4.824297124342025e-06,
      "longitude_deg": 4.261595989459581,
      "height_km": 540.5880620707852,
      "semi_major_axis_km": 6917.927387643962,
      "eccentricity": 0.0001221,
      "inclination_deg": 53.2168,
      "raan_deg": 65.557,
      "arg_perigee_deg": 83.3261,
      "mean_anomaly_deg": 276.787,
      "mean_motion_rev_day": 15.08824624
    },
    {
      "epoch": "2026-04-01T15:19:53.567616Z",
      "apogee_km": 540.7170843438307,
      "perigee_km": 538.8298783645178,
      "latitude_deg": -2.803136382428049e-05,
      "longitude_deg": 1.1239244985075214,
      "height_km": 540.5594198112492,
      "semi_major_axis_km": 6917.910481354174,
      "eccentricity": 0.0001364,
      "inclination_deg": 53.2181,
      "raan_deg": 61.0961,
      "arg_perigee_deg": 83.3146,
      "mean_anomaly_deg": 276.8001,
      "mean_motion_rev_day": 15.08830155
    }
  ]
}